<?xml version="1.0" encoding="UTF-8"?>
<ndm xmlns:xsi="http://www.w3.org/2001/XMLSchema-instance" xsi:noNamespaceSchemaLocation="https://sanaregistry.org/r/ndmxml_unqualified/ndmxml-2.0.0-master-2.0.xsd">
<omm id="CCSDS_OMM_VERS" version="2.0">
<header><CREATION_DATE/><ORIGINATOR/></header><body><segment><metadata><OBJECT_NAME>KUIPER-00053</OBJECT_NAME><OBJECT_ID>2025-134P</OBJECT_ID><CENTER_NAME>EARTH</CENTER_NAME><REF_FRAME>TEME</REF_FRAME><TIME_SYSTEM>UTC</TIME_SYSTEM><MEAN_ELEMENT_THEORY>SGP4</MEAN_ELEMENT_THEORY></metadata><data><meanElements><EPOCH>2025-07-23T04:22:12.144864</EPOCH><MEAN_MOTION>15.36378915</MEAN_MOTION><ECCENTRICITY>.0002008</ECCENTRICITY><INCLINATION>51.8756</INCLINATION><RA_OF_ASC_NODE>187.4720</RA_OF_ASC_NODE><ARG_OF_PERICENTER>194.2725</ARG_OF_PERICENTER><MEAN_ANOMALY>165.8205</MEAN_ANOMALY></meanElements><tleParameters><EPHEMERIS_TYPE>0</EPHEMERIS_TYPE><CLASSIFICATION_TYPE>U</CLASSIFICATION_TYPE><NORAD_CAT_ID>64513</NORAD_CAT_ID><ELEMENT_SET_NO>999</ELEMENT_SET_NO><REV_AT_EPOCH>581</REV_AT_EPOCH><BSTAR>.89244E-3</BSTAR><MEAN_MOTION_DOT>.31905E-3</MEAN_MOTION_DOT><MEAN_MOTION_DDOT>0</MEAN_MOTION_DDOT></tleParameters></data></segment></body></omm>
<omm id="CCSDS_OMM_VERS" version="2.0">
<header><CREATION_DATE/><ORIGINATOR/></header><body><segment><metadata><OBJECT_NAME>KUIPER-00054</OBJECT_NAME><OBJECT_ID>2025-134Q</OBJECT_ID><CENTER_NAME>EARTH</CENTER_NAME><REF_FRAME>TEME</REF_FRAME><TIME_SYSTEM>UTC</TIME_SYSTEM><MEAN_ELEMENT_THEORY>SGP4</MEAN_ELEMENT_THEORY></metadata><data><meanElements><EPOCH>2025-07-23T09:08:46.436064</EPOCH><MEAN_MOTION>15.36232004</MEAN_MOTION><ECCENTRICITY>.0002521</ECCENTRICITY><INCLINATION>51.8744</INCLINATION><RA_OF_ASC_NODE>186.5576</RA_OF_ASC_NODE><ARG_OF_PERICENTER>189.4362</ARG_OF_PERICENTER><MEAN_ANOMALY>170.6577</MEAN_ANOMALY></meanElements><tleParameters><EPHEMERIS_TYPE>0</EPHEMERIS_TYPE><CLASSIFICATION_TYPE>U</CLASSIFICATION_TYPE><NORAD_CAT_ID>64514</NORAD_CAT_ID><ELEMENT_SET_NO>999</ELEMENT_SET_NO><REV_AT_EPOCH>584</REV_AT_EPOCH><BSTAR>.8325E-3</BSTAR><MEAN_MOTION_DOT>.29586E-3</MEAN_MOTION_DOT><MEAN_MOTION_DDOT>0</MEAN_MOTION_DDOT></tleParameters></data></segment></body></omm>
<omm id="CCSDS_OMM_VERS" version="2.0">
<header><CREATION_DATE/><ORIGINATOR/></header><body><segment><metadata><OBJECT_NAME>KUIPER-00055</OBJECT_NAME><OBJECT_ID>2025-134R</OBJECT_ID><CENTER_NAME>EARTH</CENTER_NAME><REF_FRAME>TEME</REF_FRAME><TIME_SYSTEM>UTC</TIME_SYSTEM><MEAN_ELEMENT_THEORY>SGP4</MEAN_ELEMENT_THEORY></metadata><data><meanElements><EPOCH>2025-07-23T08:50:53.614176</EPOCH><MEAN_MOTION>15.36842610</MEAN_MOTION><ECCENTRICITY>.0000699</ECCENTRICITY><INCLINATION>51.8759</INCLINATION><RA_OF_ASC_NODE>186.4770</RA_OF_ASC_NODE><ARG_OF_PERICENTER>97.6643</ARG_OF_PERICENTER><MEAN_ANOMALY>262.4423</MEAN_ANOMALY></meanElements><tleParameters><EPHEMERIS_TYPE>0</EPHEMERIS_TYPE><CLASSIFICATION_TYPE>U</CLASSIFICATION_TYPE><NORAD_CAT_ID>64515</NORAD_CAT_ID><ELEMENT_SET_NO>999</ELEMENT_SET_NO><REV_AT_EPOCH>584</REV_AT_EPOCH><BSTAR>.94596E-3</BSTAR><MEAN_MOTION_DOT>.34365E-3</MEAN_MOTION_DOT><MEAN_MOTION_DDOT>0</MEAN_MOTION_DDOT></tleParameters></data></segment></body></omm>
<omm id="CCSDS_OMM_VERS" version="2.0">
<header><CREATION_DATE/><ORIGINATOR/></header><body><segment><metadata><OBJECT_NAME>KUIPER-00056</OBJECT_NAME><OBJECT_ID>2025-134S</OBJECT_ID><CENTER_NAME>EARTH</CENTER_NAME><REF_FRAME>TEME</REF_FRAME><TIME_SYSTEM>UTC</TIME_SYSTEM><MEAN_ELEMENT_THEORY>SGP4</MEAN_ELEMENT_THEORY></metadata><data><meanElements><EPOCH>2025-07-23T15:29:34.171296</EPOCH><MEAN_MOTION>15.35955932</MEAN_MOTION><ECCENTRICITY>.0003003</ECCENTRICITY><INCLINATION>51.8723</INCLINATION><RA_OF_ASC_NODE>185.3257</RA_OF_ASC_NODE><ARG_OF_PERICENTER>201.5907</ARG_OF_PERICENTER><MEAN_ANOMALY>158.4953</MEAN_ANOMALY></meanElements><tleParameters><EPHEMERIS_TYPE>0</EPHEMERIS_TYPE><CLASSIFICATION_TYPE>U</CLASSIFICATION_TYPE><NORAD_CAT_ID>64516</NORAD_CAT_ID><ELEMENT_SET_NO>999</ELEMENT_SET_NO><REV_AT_EPOCH>542</REV_AT_EPOCH><BSTAR>.1032E-2</BSTAR><MEAN_MOTION_DOT>.36476E-3</MEAN_MOTION_DOT><MEAN_MOTION_DDOT>0</MEAN_MOTION_DDOT></tleParameters></data></segment></body></omm>
<omm id="CCSDS_OMM_VERS" version="2.0">
<header><CREATION_DATE/><ORIGINATOR/></header><body><segment><metadata><OBJECT_NAME>KUIPER-00057</OBJECT_NAME><OBJECT_ID>2025-134T</OBJECT_ID><CENTER_NAME>EARTH</CENTER_NAME><REF_FRAME>TEME</REF_FRAME><TIME_SYSTEM>UTC</TIME_SYSTEM><MEAN_ELEMENT_THEORY>SGP4</MEAN_ELEMENT_THEORY></metadata><data><meanElements><EPOCH>2025-07-23T03:22:43.665888</EPOCH><MEAN_MOTION>15.35052574</MEAN_MOTION><ECCENTRICITY>.0006021</ECCENTRICITY><INCLINATION>51.8682</INCLINATION><RA_OF_ASC_NODE>187.9288</RA_OF_ASC_NODE><ARG_OF_PERICENTER>215.8325</ARG_OF_PERICENTER><MEAN_ANOMALY>144.2257</MEAN_ANOMALY></meanElements><tleParameters><EPHEMERIS_TYPE>0</EPHEMERIS_TYPE><CLASSIFICATION_TYPE>U</CLASSIFICATION_TYPE><NORAD_CAT_ID>64517</NORAD_CAT_ID><ELEMENT_SET_NO>999</ELEMENT_SET_NO><REV_AT_EPOCH>580</REV_AT_EPOCH><BSTAR>.47216E-3</BSTAR><MEAN_MOTION_DOT>.15963E-3</MEAN_MOTION_DOT><MEAN_MOTION_DDOT>0</MEAN_MOTION_DDOT></tleParameters></data></segment></body></omm>
<omm id="CCSDS_OMM_VERS" version="2.0">
<header><CREATION_DATE/><ORIGINATOR/></header><body><segment><metadata><OBJECT_NAME>KUIPER-00058</OBJECT_NAME><OBJECT_ID>2025-134U</OBJECT_ID><CENTER_NAME>EARTH</CENTER_NAME><REF_FRAME>TEME</REF_FRAME><TIME_SYSTEM>UTC</TIME_SYSTEM><MEAN_ELEMENT_THEORY>SGP4</MEAN_ELEMENT_THEORY></metadata><data><meanElements><EPOCH>2025-07-23T07:50:51.249984</EPOCH><MEAN_MOTION>15.35607333</MEAN_MOTION><ECCENTRICITY>.0004408</ECCENTRICITY><INCLINATION>51.8708</INCLINATION><RA_OF_ASC_NODE>186.9360</RA_OF_ASC_NODE><ARG_OF_PERICENTER>212.4508</ARG_OF_PERICENTER><MEAN_ANOMALY>147.6207</MEAN_ANOMALY></meanElements><tleParameters><EPHEMERIS_TYPE>0</EPHEMERIS_TYPE><CLASSIFICATION_TYPE>U</CLASSIFICATION_TYPE><NORAD_CAT_ID>64518</NORAD_CAT_ID><ELEMENT_SET_NO>999</ELEMENT_SET_NO><REV_AT_EPOCH>583</REV_AT_EPOCH><BSTAR>.46773E-3</BSTAR><MEAN_MOTION_DOT>.16094E-3</MEAN_MOTION_DOT><MEAN_MOTION_DDOT>0</MEAN_MOTION_DDOT></tleParameters></data></segment></body></omm>
<omm id="CCSDS_OMM_VERS" version="2.0">
<header><CREATION_DATE/><ORIGINATOR/></header><body><segment><metadata><OBJECT_NAME>KUIPER-00059</OBJECT_NAME><OBJECT_ID>2025-134V</OBJECT_ID><CENTER_NAME>EARTH</CENTER_NAME><REF_FRAME>TEME</REF_FRAME><TIME_SYSTEM>UTC</TIME_SYSTEM><MEAN_ELEMENT_THEORY>SGP4</MEAN_ELEMENT_THEORY></metadata><data><meanElements><EPOCH>2025-07-23T08:53:14.941248</EPOCH><MEAN_MOTION>15.36766010</MEAN_MOTION><ECCENTRICITY>.0000844</ECCENTRICITY><INCLINATION>51.8749</INCLINATION><RA_OF_ASC_NODE>186.4827</RA_OF_ASC_NODE><ARG_OF_PERICENTER>142.5583</ARG_OF_PERICENTER><MEAN_ANOMALY>217.5463</MEAN_ANOMALY></meanElements><tleParameters><EPHEMERIS_TYPE>0</EPHEMERIS_TYPE><CLASSIFICATION_TYPE>U</CLASSIFICATION_TYPE><NORAD_CAT_ID>64519</NORAD_CAT_ID><ELEMENT_SET_NO>999</ELEMENT_SET_NO><REV_AT_EPOCH>584</REV_AT_EPOCH><BSTAR>.10705E-2</BSTAR><MEAN_MOTION_DOT>.38867E-3</MEAN_MOTION_DOT><MEAN_MOTION_DDOT>0</MEAN_MOTION_DDOT></tleParameters></data></segment></body></omm>
<omm id="CCSDS_OMM_VERS" version="2.0">
<header><CREATION_DATE/><ORIGINATOR/></header><body><segment><metadata><OBJECT_NAME>KUIPER-00060</OBJECT_NAME><OBJECT_ID>2025-134W</OBJECT_ID><CENTER_NAME>EARTH</CENTER_NAME><REF_FRAME>TEME</REF_FRAME><TIME_SYSTEM>UTC</TIME_SYSTEM><MEAN_ELEMENT_THEORY>SGP4</MEAN_ELEMENT_THEORY></metadata><data><meanElements><EPOCH>2025-07-23T05:52:16.228992</EPOCH><MEAN_MOTION>15.36571809</MEAN_MOTION><ECCENTRICITY>.0002141</ECCENTRICITY><INCLINATION>51.8754</INCLINATION><RA_OF_ASC_NODE>187.1430</RA_OF_ASC_NODE><ARG_OF_PERICENTER>152.7788</ARG_OF_PERICENTER><MEAN_ANOMALY>207.3311</MEAN_ANOMALY></meanElements><tleParameters><EPHEMERIS_TYPE>0</EPHEMERIS_TYPE><CLASSIFICATION_TYPE>U</CLASSIFICATION_TYPE><NORAD_CAT_ID>64520</NORAD_CAT_ID><ELEMENT_SET_NO>999</ELEMENT_SET_NO><REV_AT_EPOCH>581</REV_AT_EPOCH><BSTAR>.11777E-2</BSTAR><MEAN_MOTION_DOT>.42551E-3</MEAN_MOTION_DOT><MEAN_MOTION_DDOT>0</MEAN_MOTION_DDOT></tleParameters></data></segment></body></omm>

</ndm>
